BATSU-CS1 (IRAZU)       
1 43468U 98067NR  20025.19100596  .00110756  15736-4  33829-3 0  9999
2 43468  51.6313 274.0951 0003934 174.1455 185.9598 15.91813272197742
CUBERRT                 
1 43546U 98067NU  20025.24485579  .00007867  00000-0  71708-4 0  9990
2 43546  51.6366 298.7291 0002789 247.6495 112.4207 15.68986776 87579
TEMPEST-D               
1 43547U 98067NV  20025.41535929  .00003924  00000-0  53168-4 0  9995
2 43547  51.6386 317.9263 0004476 227.4481 132.6134 15.60352801 87011
RAINCUBE                
1 43548U 98067NW  20025.48013100  .00014008  00000-0  13143-3 0  9998
2 43548  51.6356 305.5311 0003534 240.5634 119.5010 15.67485107 87634
HALOSAT                 
1 43549U 98067NX  20025.50085119  .00015560  00000-0  14634-3 0  9991
2 43549  51.6373 305.7106 0003431 243.1950 116.8696 15.67323172 87198
ENDUROSAT ONE           
1 43551U 98067NZ  20025.45683590  .00018493  00000-0  15052-3 0  9998
2 43551  51.6353 300.1300 0003212 253.4967 106.5678 15.70717362 87674
EQUISAT                 
1 43552U 98067PA  20025.19979925  .00015077  00000-0  14012-3 0  9990
2 43552  51.6381 305.9900 0003935 252.6321 107.4245 15.67647659 87534
AEROCUBE 12A            
1 43556U 18046C   20025.43799024  .00000389  00000-0  25997-4 0  9995
2 43556  51.6427  77.2992 0008724 137.6733 222.4921 15.29329865 85338
AEROCUBE 12B            
1 43557U 18046D   20025.54069344  .00001295  00000-0  57681-4 0  9995
2 43557  51.6431  77.2272 0008722 138.2927 221.8719 15.29124709 85298
UITMSAT-1               
1 43589U 98067PD  20025.07288035  .00020190  00000-0  17812-3 0  9995
2 43589  51.6346 306.5208 0003084 261.5703  98.4945 15.68687824 83251
MAYA-1                  
1 43590U 98067PE  20025.06602363  .00019251  00000-0  17006-3 0  9991
2 43590  51.6353 306.4823 0003185 262.3646  97.6989 15.68692506 83184
BHUTAN-1                
1 43591U 98067PF  20025.49377148  .00016721  00000-0  14786-3 0  9990
2 43591  51.6359 304.1360 0003315 264.2302  95.8317 15.68783406 83250
SIRIUSSAT-1             
1 43595U 98067PG  20025.49761239  .00014797  00000-0  13930-3 0  9993
2 43595  51.6352 307.1228 0002225 202.3261 157.7639 15.67349409 82398
SIRIUSSAT-2             
1 43596U 98067PH  20025.48651117  .00014966  00000-0  14147-3 0  9995
2 43596  51.6361 307.8595 0002671 205.8272 154.2591 15.67235107 82385
TANUSHA-3               
1 43597U 98067PJ  20025.38594369  .00024557  00000-0  19284-3 0  9994
2 43597  51.6334 302.5609 0001834 208.8040 151.2857 15.71375745 82447
SURFSAT                 
1 43614U 18070B   20025.43086354  .00001988  00000-0  52368-4 0  9990
2 43614  93.0344  95.0218 0016046 164.4649 195.7101 15.38501163 76335
CP7 (DAVE)              
1 43615U 18070C   20025.45039332  .00001928  00000-0  50965-4 0  9992
2 43615  93.0348  95.0269 0016199 163.9378 196.2393 15.38389793 76330
ELFIN-B                 
1 43616U 18070D   20025.47206838  .00002696  00000-0  68846-4 0  9992
2 43616  93.0310  94.9468 0016743 166.7136 193.4563 15.39418377 76360
ELFIN-A                 
1 43617U 18070E   20025.45485459  .00002873  00000-0  73052-4 0  9991
2 43617  93.0365  95.3314 0016186 163.2063 196.9731 15.39548821 76361
CUBEBEL-1 (BSUSAT-1)    
1 43666U 18083E   20025.48402576  .00000749  00000-0  40126-4 0  9997
2 43666  97.5032  53.2808 0016181 136.9615 329.8893 15.17969526 68778
DEBRISSAT-2             
1 43680U 98067PR  20025.47261182  .00038534  00000-0  24993-3 0  9994
2 43680  51.6351 298.6691 0001361 191.4092 168.6877 15.75608190 91232
CICERO 10               
1 43690U 18088A   20025.46033548  .00000886  00000-0  39155-4 0  9998
2 43690  85.0396 173.1688 0016984 115.1468 245.1536 15.19991005 66865
IRVINE01                
1 43693U 18088D   20025.42734526  .00002032  00000-0  86171-4 0  9996
2 43693  85.0371 172.2893 0020067 100.6826 259.6677 15.22244075 66939
PROXIMA I               
1 43694U 18088E   20025.48483134  .00000805  00000-0  33519-4 0  9993
2 43694  85.0340 172.0458 0021561  92.8224 267.5486 15.21728201 66949
PROXIMA II              
1 43696U 18088G   20025.41757409  .00000798  00000-0  33201-4 0  9996
2 43696  85.0341 172.0925 0021607  92.9986 267.3729 15.21732133 66934
FACSAT-1                
1 43721U 18096C   20025.44081046  .00001088  00000-0  44013-4 0  9990
2 43721  97.4370  99.7215 0016139 271.2923  88.6467 15.26820016 64413
CENTAURI-2              
1 43722U 18096D   20025.51025441  .00001454  00000-0  57154-4 0  9993
2 43722  97.4376  99.9458 0016210 271.1780  88.7602 15.27217895 64420
INNOSAT-2               
1 43738U 18096V   20025.57362289  .00001842  00000-0  66507-4 0  9993
2 43738  97.4386 101.4088 0022260 280.3887  79.4844 15.29598129 64539
SIRION PATHFINDER-2     
1 43759U 18099B   20025.43241527  .00000068  00000-0  11435-4 0  9994
2 43759  97.7226  99.4371 0013036 308.0179  51.9865 14.95220874 62405
CORVUS-BC 4             
1 43767U 18099K   20025.45387402 -.00000144  00000-0 -79717-5 0  9993
2 43767  97.7208  99.0235 0010665 312.4417  47.5901 14.94658550 62393
MOVE-II                 
1 43780U 18099Y   20025.45343665  .00000015  00000-0  66058-5 0  9990
2 43780  97.7225  99.3610 0012525 319.4719  40.5568 14.95258235 62395
SPACEBEE-7              
1 43816U 18099BL  20025.48893066  .00000643  00000-0  63126-4 0  9997
2 43816  97.7242  99.6968 0012005 303.1388  56.8680 14.95574676 61976
SPACEBEE-5              
1 43817U 18099BM  20025.42651430  .00001039  00000-0  97691-4 0  9993
2 43817  97.7280  99.8813 0011702 302.9566  57.0529 14.96024146 61976
SPACEBEE-6              
1 43818U 18099BN  20025.46848367  .00000553  00000-0  54857-4 0  9992
2 43818  97.7248  99.7542 0012045 302.0796  57.9255 14.95713654 62127
SHIELDS 1               
1 43850U 18104B   20025.41526926  .00000041  00000-0  00000-0 0  9993
2 43850  85.0282 270.5550 0012824 234.4502 125.5583 15.21256500 61573
STF-1                   
1 43852U 18104D   20025.41071645  .00000041  00000-0  00000-0 0  9998
2 43852  85.0306 270.9908 0012232 250.7826 109.2142 15.20981149 61557
ZACUBE-2                
1 43907U 18111AH  20025.57597181  .00000444  00000-0  20900-4 0  9994
2 43907  97.2783 289.5682 0020048 293.9254  65.9884 15.24425607 60090
LUME 1                  
1 43908U 18111AJ  20025.47067346  .00000823  00000-0  35931-4 0  9990
2 43908  97.2783 289.5538 0019896 294.2820  65.6340 15.24742882 60083
AOBA VELOX-IV           
1 43940U 19003J   20025.61830218  .00001233  00000-0  52631-4 0  9991
2 43940  97.2504  81.7136 0024507  16.4970 136.2268 15.24488378 56739
CATSAT-2                
1 44029U 98067PV  20025.52245742  .00010529  00000-0  12928-3 0  9991
2 44029  51.6398 323.1783 0003367 255.2114 104.8507 15.60914713 56013
DELPHINI                
1 44030U 98067PW  20025.54403310  .00011253  00000-0  13527-3 0  9993
2 44030  51.6374 322.5168 0003070 249.1996 110.8669 15.61391479 55991
UNITE                   
1 44031U 98067PX  20025.23790145  .00006883  00000-0  94224-4 0  9992
2 44031  51.6387 327.2522 0002318 243.3387 116.7368 15.58670981 55902
TECHEDSAT 8             
1 44032U 98067PY  20025.51431683  .00056496  00000-0  36854-3 0  9992
2 44032  51.6329 309.5112 0001656 178.9705 181.1298 15.75307261 56140
CATSAT-1                
1 44033U 98067PZ  20025.52231042  .00011238  00000-0  13757-3 0  9993
2 44033  51.6402 323.1809 0003233 254.5534 105.5102 15.60912750 55920
RAAVANA-1               
1 44329U 98067QE  20025.56962367  .00006425  00000-0  10059-3 0  9990
2 44329  51.6411 333.9944 0006521 177.4699 182.6326 15.55112814 34596
UGUISU                  
1 44330U 98067QF  20025.25456382  .00006757  00000-0  10564-3 0  9992
2 44330  51.6409 335.6382 0006539 174.8167 185.2893 15.55052055 34521
NEPALISAT-1             
1 44331U 98067QG  20025.24344895  .00006570  00000-0  10260-3 0  9993
2 44331  51.6410 335.5662 0006522 177.5195 182.5830 15.55140154 34537
SPOOQY-1                
1 44332U 98067QH  20025.56242953  .00006155  00000-0  96652-4 0  9990
2 44332  51.6410 333.9435 0005374 179.5974 180.5022 15.55119286 34543
SPACEBEE-9              
1 44370U 19037F   20025.49890782  .00005801  00000-0  14445-3 0  9999
2 44370  45.0156 199.3584 0012712  55.9139 304.2959 15.41238947 32376
SPACEBEE-8              
1 44371U 19037G   20025.61520309  .00010433  00000-0  23442-3 0  9993
2 44371  45.0178 196.8576 0011083  57.7144 302.4818 15.43551596 32408
IOD-1 GEMS              
1 44385U 98067QK  20025.56676711  .00008871  00000-0  13216-3 0  9992
2 44385  51.6420 334.0019 0003513 137.8242 222.3021 15.55938901 32062
MOVE-IIB                
1 44398U 19038N   20025.56164643  .00000876  00000-0  54561-4 0  9999
2 44398  97.5180 348.8282 0023789 263.1560  96.6964 15.12001338 30835
SONATE                  
1 44400U 19038Q   20025.50322151  .00000445  00000-0  29742-4 0  9992
2 44400  97.5204 348.7890 0023689 261.2966  98.5581 15.11811233 30825
LUCKY-7                 
1 44406U 19038W   20025.40998049  .00000375  00000-0  25537-4 0  9992
2 44406  97.5201 348.7546 0023163 261.5112  98.3493 15.12036821 30800
BEESAT 9                
1 44412U 19038AC  20025.41325409  .00000562  00000-0  36324-4 0  9998
2 44412  97.5196 348.7421 0021272 267.8131  92.0664 15.12054249 30503
JAISAT-1                
1 44419U 19038F   20025.54563698  .00000568  00000-0  36224-4 0  9998
2 44419  97.5197 349.0282 0020138 266.8593  93.0334 15.12537199 30843
SWIATOWID               
1 44426U 98067QL  20025.45472287  .00012734  00000-0  18515-3 0  9998
2 44426  51.6448 334.5381 0004368 127.9336 330.1364 15.56151209 32054
KRAKSAT                 
1 44427U 98067QM  20025.24278689  .00005184  00000-0  86260-4 0  9990
2 44427  51.6425 337.0807 0004262 130.7768 229.3593 15.53878057 32041
VCC A                   
1 44428U 98067QN  20025.57409723  .00006526  00000-0  10397-3 0  9990
2 44428  51.6426 334.7969 0003341 146.7154 213.4048 15.54601869 32101
